start=new Date('2022-06-13T00:00:00.000Z').valueOf();
sats=[{"INCLINATION":"53.0557","REF_FRAME":"TEME","TIME_SYSTEM":"UTC","REV_AT_EPOCH":"10313","OBJECT_NAME":"STARLINK-1543","RCS_SIZE":"LARGE","MEAN_MOTION_DOT":"0.00000180","ARG_OF_PERICENTER":"59.3214","CLASSIFICATION_TYPE":"U","OBJECT_TYPE":"PAYLOAD","NORAD_CAT_ID":"46053","ECCENTRICITY":"0.00016580","EPHEMERIS_TYPE":"0","TLE_LINE1":"1 46053U 20055AC  22163.60646442  .00000180  00000-0  30971-4 0  9999","LAUNCH_DATE":"2020-08-07","PERIAPSIS":"546.085","OBJECT_ID":"2020-055AC","SEMIMAJOR_AXIS":"6925.369","COUNTRY_CODE":"US","GP_ID":"206012986","SITE":"AFETR","EPOCH":"2022-06-12T14:33:18.525888","ELEMENT_SET_NO":"999","DECAY_DATE":null,"TLE_LINE2":"2 46053  53.0557 129.2027 0001658  59.3214 300.7939 15.06393430103135","FILE":"3493781","MEAN_ELEMENT_THEORY":"SGP4","MEAN_ANOMALY":"300.7939","PERIOD":"95.593","BSTAR":"0.00003097100000","CENTER_NAME":"EARTH","MEAN_MOTION_DDOT":"0.0000000000000","RA_OF_ASC_NODE":"129.2027","APOAPSIS":"548.382","MEAN_MOTION":"15.06393430"},{"SITE":"AFETR","COUNTRY_CODE":"US","GP_ID":"206011739","DECAY_DATE":null,"ELEMENT_SET_NO":"999","EPOCH":"2022-06-12T14:43:55.430400","CENTER_NAME":"EARTH","MEAN_MOTION_DDOT":"0.0000000000000","MEAN_ANOMALY":"299.8757","PERIOD":"95.593","BSTAR":"0.00001097700000","FILE":"3493781","MEAN_ELEMENT_THEORY":"SGP4","TLE_LINE2":"2 46054  53.0554 129.1748 0001902  60.2421 299.8757 15.06390842103135","MEAN_MOTION":"15.06390842","RA_OF_ASC_NODE":"129.1748","APOAPSIS":"548.559","OBJECT_NAME":"STARLINK-1548","RCS_SIZE":"LARGE","REF_FRAME":"TEME","REV_AT_EPOCH":"10313","TIME_SYSTEM":"UTC","INCLINATION":"53.0554","CLASSIFICATION_TYPE":"U","OBJECT_TYPE":"PAYLOAD","MEAN_MOTION_DOT":"-0.00000118","ARG_OF_PERICENTER":"60.2421","EPHEMERIS_TYPE":"0","ECCENTRICITY":"0.00019020","NORAD_CAT_ID":"46054","SEMIMAJOR_AXIS":"6925.377","LAUNCH_DATE":"2020-08-07","PERIAPSIS":"545.924","OBJECT_ID":"2020-055AD","TLE_LINE1":"1 46054U 20055AD  22163.61383600 -.00000118  00000-0  10977-4 0  9991"},{"DECAY_DATE":null,"ELEMENT_SET_NO":"999","EPOCH":"2022-06-12T14:22:41.124576","SITE":"AFETR","COUNTRY_CODE":"US","GP_ID":"206011989","MEAN_MOTION":"15.06399639","RA_OF_ASC_NODE":"129.2448","APOAPSIS":"548.541","PERIOD":"95.592","BSTAR":"0.00000994080000","MEAN_ANOMALY":"294.4182","CENTER_NAME":"EARTH","MEAN_MOTION_DDOT":"0.0000000000000","TLE_LINE2":"2 46055  53.0543 129.2448 0001915  65.7007 294.4182 15.06399639103132","FILE":"3493781","MEAN_ELEMENT_THEORY":"SGP4","MEAN_MOTION_DOT":"-0.00000134","ARG_OF_PERICENTER":"65.7007","CLASSIFICATION_TYPE":"U","OBJECT_TYPE":"PAYLOAD","OBJECT_NAME":"STARLINK-1554","RCS_SIZE":"LARGE","INCLINATION":"53.0543","REF_FRAME":"TEME","TIME_SYSTEM":"UTC","REV_AT_EPOCH":"10313","SEMIMAJOR_AXIS":"6925.350","TLE_LINE1":"1 46055U 20055AE  22163.59908709 -.00000134  00000-0  99408-5 0  9997","LAUNCH_DATE":"2020-08-07","OBJECT_ID":"2020-055AE","PERIAPSIS":"545.888","ECCENTRICITY":"0.00019150","EPHEMERIS_TYPE":"0","NORAD_CAT_ID":"46055"},{"SEMIMAJOR_AXIS":"6924.647","LAUNCH_DATE":"2020-08-07","OBJECT_ID":"2020-055AF","PERIAPSIS":"544.972","TLE_LINE1":"1 46056U 20055AF  22163.62050046 -.00012367  00000-0 -80767-3 0  9992","EPHEMERIS_TYPE":"0","ECCENTRICITY":"0.00022240","NORAD_CAT_ID":"46056","CLASSIFICATION_TYPE":"U","OBJECT_TYPE":"PAYLOAD","ARG_OF_PERICENTER":"48.1180","MEAN_MOTION_DOT":"-0.00012367","RCS_SIZE":"LARGE","OBJECT_NAME":"STARLINK-1561","REV_AT_EPOCH":"10314","TIME_SYSTEM":"UTC","REF_FRAME":"TEME","INCLINATION":"53.0549","MEAN_MOTION":"15.06629013","APOAPSIS":"548.052","RA_OF_ASC_NODE":"129.1337","MEAN_MOTION_DDOT":"0.0000000000000","CENTER_NAME":"EARTH","PERIOD":"95.578","BSTAR":"-0.00080767000000","MEAN_ANOMALY":"311.9998","MEAN_ELEMENT_THEORY":"SGP4","FILE":"3493781","TLE_LINE2":"2 46056  53.0549 129.1337 0002224  48.1180 311.9998 15.06629013103149","DECAY_DATE":null,"ELEMENT_SET_NO":"999","EPOCH":"2022-06-12T14:53:31.239744","SITE":"AFETR","COUNTRY_CODE":"US","GP_ID":"206013241"},{"CLASSIFICATION_TYPE":"U","OBJECT_TYPE":"PAYLOAD","MEAN_MOTION_DOT":"0.00001230","ARG_OF_PERICENTER":"71.2750","REF_FRAME":"TEME","REV_AT_EPOCH":"10317","TIME_SYSTEM":"UTC","INCLINATION":"53.0551","OBJECT_NAME":"STARLINK-1564","RCS_SIZE":"LARGE","LAUNCH_DATE":"2020-08-07","PERIAPSIS":"546.002","OBJECT_ID":"2020-055AH","TLE_LINE1":"1 46058U 20055AH  22163.89764472  .00001230  00000-0  10144-3 0  9995","SEMIMAJOR_AXIS":"6925.350","NORAD_CAT_ID":"46058","EPHEMERIS_TYPE":"0","ECCENTRICITY":"0.00017520","EPOCH":"2022-06-12T21:32:36.503808","ELEMENT_SET_NO":"999","DECAY_DATE":null,"COUNTRY_CODE":"US","GP_ID":"206013487","SITE":"AFETR","RA_OF_ASC_NODE":"127.8876","APOAPSIS":"548.429","MEAN_MOTION":"15.06399393","FILE":"3493781","MEAN_ELEMENT_THEORY":"SGP4","TLE_LINE2":"2 46058  53.0551 127.8876 0001752  71.2750 288.8429 15.06399393103171","CENTER_NAME":"EARTH","MEAN_MOTION_DDOT":"0.0000000000000","MEAN_ANOMALY":"288.8429","PERIOD":"95.592","BSTAR":"0.00010144000000"},{"APOAPSIS":"548.372","RA_OF_ASC_NODE":"129.0571","MEAN_MOTION":"15.06409920","MEAN_ELEMENT_THEORY":"SGP4","FILE":"3493781","TLE_LINE2":"2 46059  53.0563 129.0571 0001717  66.4839 293.6330 15.06409920103090","MEAN_MOTION_DDOT":"0.0000000000000","CENTER_NAME":"EARTH","MEAN_ANOMALY":"293.6330","PERIOD":"95.592","BSTAR":"0.00001145400000","EPOCH":"2022-06-12T15:21:03.301920","ELEMENT_SET_NO":"999","DECAY_DATE":null,"COUNTRY_CODE":"US","GP_ID":"206012240","SITE":"AFETR","OBJECT_ID":"2020-055AJ","LAUNCH_DATE":"2020-08-07","PERIAPSIS":"545.994","TLE_LINE1":"1 46059U 20055AJ  22163.63962155 -.00000111  00000-0  11454-4 0  9990","SEMIMAJOR_AXIS":"6925.318","NORAD_CAT_ID":"46059","EPHEMERIS_TYPE":"0","ECCENTRICITY":"0.00017170","CLASSIFICATION_TYPE":"U","OBJECT_TYPE":"PAYLOAD","ARG_OF_PERICENTER":"66.4839","MEAN_MOTION_DOT":"-0.00000111","TIME_SYSTEM":"UTC","REV_AT_EPOCH":"10309","REF_FRAME":"TEME","INCLINATION":"53.0563","RCS_SIZE":"LARGE","OBJECT_NAME":"STARLINK-1570"},{"RCS_SIZE":"LARGE","OBJECT_NAME":"STARLINK-1572","TIME_SYSTEM":"UTC","REV_AT_EPOCH":"10314","REF_FRAME":"TEME","INCLINATION":"53.0552","OBJECT_TYPE":"PAYLOAD","CLASSIFICATION_TYPE":"U","ARG_OF_PERICENTER":"64.0192","MEAN_MOTION_DOT":"0.00001468","EPHEMERIS_TYPE":"0","ECCENTRICITY":"0.00020520","NORAD_CAT_ID":"46060","SEMIMAJOR_AXIS":"6925.338","LAUNCH_DATE":"2020-08-07","OBJECT_ID":"2020-055AK","PERIAPSIS":"545.782","TLE_LINE1":"1 46060U 20055AK  22163.90132703  .00001468  00000-0  11743-3 0  9995","SITE":"AFETR","GP_ID":"206012490","COUNTRY_CODE":"US","DECAY_DATE":null,"ELEMENT_SET_NO":"999","EPOCH":"2022-06-12T21:37:54.655392","MEAN_MOTION_DDOT":"0.0000000000000","CENTER_NAME":"EARTH","PERIOD":"95.592","MEAN_ANOMALY":"296.1008","BSTAR":"0.00011743000000","MEAN_ELEMENT_THEORY":"SGP4","FILE":"3493781","TLE_LINE2":"2 46060  53.0552 127.8812 0002052  64.0192 296.1008 15.06403489103143","MEAN_MOTION":"15.06403489","APOAPSIS":"548.624","RA_OF_ASC_NODE":"127.8812"},{"GP_ID":"206012741","COUNTRY_CODE":"US","SITE":"AFETR","EPOCH":"2022-06-12T21:27:17.841600","ELEMENT_SET_NO":"999","DECAY_DATE":null,"FILE":"3493781","MEAN_ELEMENT_THEORY":"SGP4","TLE_LINE2":"2 46061  53.0547 127.9215 0001961  55.0972 305.0201 15.06404887103171","CENTER_NAME":"EARTH","MEAN_MOTION_DDOT":"0.0000000000000","MEAN_ANOMALY":"305.0201","PERIOD":"95.592","BSTAR":"0.00010800000000","RA_OF_ASC_NODE":"127.9215","APOAPSIS":"548.557","MEAN_MOTION":"15.06404887","REF_FRAME":"TEME","REV_AT_EPOCH":"10317","TIME_SYSTEM":"UTC","INCLINATION":"53.0547","OBJECT_NAME":"STARLINK-1573","RCS_SIZE":"LARGE","CLASSIFICATION_TYPE":"U","OBJECT_TYPE":"PAYLOAD","MEAN_MOTION_DOT":"0.00001328","ARG_OF_PERICENTER":"55.0972","NORAD_CAT_ID":"46061","EPHEMERIS_TYPE":"0","ECCENTRICITY":"0.00019610","OBJECT_ID":"2020-055AL","LAUNCH_DATE":"2020-08-07","PERIAPSIS":"545.841","TLE_LINE1":"1 46061U 20055AL  22163.89395650  .00001328  00000-0  10800-3 0  9994","SEMIMAJOR_AXIS":"6925.334"},{"TLE_LINE2":"2 46062  53.0537 129.2515 0002173  46.9997 313.1174 15.06400046103094","FILE":"3493781","MEAN_ELEMENT_THEORY":"SGP4","BSTAR":"0.00000425410000","PERIOD":"95.592","MEAN_ANOMALY":"313.1174","CENTER_NAME":"EARTH","MEAN_MOTION_DDOT":"0.0000000000000","RA_OF_ASC_NODE":"129.2515","APOAPSIS":"548.718","MEAN_MOTION":"15.06400046","COUNTRY_CODE":"US","GP_ID":"206012987","SITE":"AFETR","ELEMENT_SET_NO":"999","EPOCH":"2022-06-12T14:17:22.458912","DECAY_DATE":null,"NORAD_CAT_ID":"46062","ECCENTRICITY":"0.00021730","EPHEMERIS_TYPE":"0","TLE_LINE1":"1 46062U 20055AM  22163.59539883 -.00000218  00000-0  42541-5 0  9997","OBJECT_ID":"2020-055AM","LAUNCH_DATE":"2020-08-07","PERIAPSIS":"545.709","SEMIMAJOR_AXIS":"6925.348","INCLINATION":"53.0537","REF_FRAME":"TEME","REV_AT_EPOCH":"10309","TIME_SYSTEM":"UTC","OBJECT_NAME":"STARLINK-1574","RCS_SIZE":"LARGE","MEAN_MOTION_DOT":"-0.00000218","ARG_OF_PERICENTER":"46.9997","CLASSIFICATION_TYPE":"U","OBJECT_TYPE":"PAYLOAD"},{"OBJECT_NAME":"STARLINK-1577","RCS_SIZE":"LARGE","INCLINATION":"53.0550","REF_FRAME":"TEME","REV_AT_EPOCH":"10308","TIME_SYSTEM":"UTC","MEAN_MOTION_DOT":"0.00000661","ARG_OF_PERICENTER":"59.5901","OBJECT_TYPE":"PAYLOAD","CLASSIFICATION_TYPE":"U","ECCENTRICITY":"0.00018120","EPHEMERIS_TYPE":"0","NORAD_CAT_ID":"46063","SEMIMAJOR_AXIS":"6925.354","TLE_LINE1":"1 46063U 20055AN  22163.32632116  .00000661  00000-0  63281-4 0  9996","LAUNCH_DATE":"2020-08-07","OBJECT_ID":"2020-055AN","PERIAPSIS":"545.964","SITE":"AFETR","GP_ID":"205976378","COUNTRY_CODE":"US","DECAY_DATE":null,"EPOCH":"2022-06-12T07:49:54.148224","ELEMENT_SET_NO":"999","PERIOD":"95.592","BSTAR":"0.00006328100000","MEAN_ANOMALY":"300.5267","CENTER_NAME":"EARTH","MEAN_MOTION_DDOT":"0.0000000000000","TLE_LINE2":"2 46063  53.0550 130.4724 0001812  59.5901 300.5267 15.06398368103085","FILE":"3493305","MEAN_ELEMENT_THEORY":"SGP4","MEAN_MOTION":"15.06398368","RA_OF_ASC_NODE":"130.4724","APOAPSIS":"548.473"}];
